{"type": "FeatureCollection", "features": [ {"type": "Feature", "properties": {"norad_id": 29930, "name": "FENGYUN 1C DEB", "group": "fengyun-1c-debris", "lat": -21.651896765289724, "lon": -120.61807989905432, "alt_km": 761.1400433497738, "timestamp": "2025-12-19T08:58:49.610621+00:00", "meta": {"OBJECT_NAME": "FENGYUN 1C DEB", "OBJECT_ID": "1999-025JC", "EPOCH": "2025-12-18T14:46:05.954880", "MEAN_MOTION": 14.20823629, "ECCENTRICITY": 0.0164424, "INCLINATION": 99.0442, "RA_OF_ASC_NODE": 234.9801, "ARG_OF_PERICENTER": 36.8567, "MEAN_ANOMALY": 23.6131, "EPHEMERIS_TYPE": 0, "CLASSIFICATION_TYPE": "U", "NORAD_CAT_ID": 29930, "ELEMENT_SET_NO": 999, "REV_AT_EPOCH": 97974, "BSTAR": 0.00019413705, "MEAN_MOTION_DOT": 4.34e-06, "MEAN_MOTION_DDOT": 0}, "tle": {"line1": "1 29930U 99025JC  25352.61534670  .00000434  00000+0  19414-3 0  9999", "line2": "2 29930  99.0442 234.9801 0164424  36.8567  23.6131 14.20823629979745"}}, "geometry": {"type": "Point", "coordinates": [-120.61807989905432, -21.651896765289724]}}, {"type": "Feature", "properties": {"norad_id": 29931, "name": "FENGYUN 1C DEB", "group": "fengyun-1c-debris", "lat": -61.40732144133511, "lon": 45.14200856470191, "alt_km": 905.0087563634697, "timestamp": "2025-12-19T08:58:49.610631+00:00", "meta": {"OBJECT_NAME": "FENGYUN 1C DEB", "OBJECT_ID": "1999-025JD", "EPOCH": "2025-12-18T16:43:30.067392", "MEAN_MOTION": 14.03899133, "ECCENTRICITY": 0.00324253, "INCLINATION": 98.8592, "RA_OF_ASC_NODE": 27.8546, "ARG_OF_PERICENTER": 77.6193, "MEAN_ANOMALY": 38.7241, "EPHEMERIS_TYPE": 0, "CLASSIFICATION_TYPE": "U", "NORAD_CAT_ID": 29931, "ELEMENT_SET_NO": 999, "REV_AT_EPOCH": 96896, "BSTAR": 0.00034908841, "MEAN_MOTION_DOT": 5.11e-06, "MEAN_MOTION_DDOT": 0}, "tle": {"line1": "1 29931U 99025JD  25352.69687578  .00000511  00000+0  34909-3 0  9996", "line2": "2 29931  98.8592  27.8546 0032425  77.6193  38.7241 14.03899133968962"}}, "geometry": {"type": "Point", "coordinates": [45.14200856470191, -61.40732144133511]}}, {"type": "Feature", "properties": {"norad_id": 29932, "name": "FENGYUN 1C DEB", "group": "fengyun-1c-debris", "lat": -23.335236883782084, "lon": 7.621804280891402, "alt_km": 834.5389412562517, "timestamp": "2025-12-19T08:58:49.610641+00:00", "meta": {"OBJECT_NAME": "FENGYUN 1C DEB", "OBJECT_ID": "1999-025JE", "EPOCH": "2025-12-18T11:47:11.669856", "MEAN_MOTION": 14.16769634, "ECCENTRICITY": 0.00384024, "INCLINATION": 98.6339, "RA_OF_ASC_NODE": 3.0067, "ARG_OF_PERICENTER": 54.2765, "MEAN_ANOMALY": 101.1509, "EPHEMERIS_TYPE": 0, "CLASSIFICATION_TYPE": "U", "NORAD_CAT_ID": 29932, "ELEMENT_SET_NO": 999, "REV_AT_EPOCH": 97665, "BSTAR": 0.00024303529, "MEAN_MOTION_DOT": 4.47e-06, "MEAN_MOTION_DDOT": 0}, "tle": {"line1": "1 29932U 99025JE  25352.49110729  .00000447  00000+0  24304-3 0  9990", "line2": "2 29932  98.6339   3.0067 0038402  54.2765 101.1509 14.16769634976654"}}, "geometry": {"type": "Point", "coordinates": [7.621804280891402, -23.335236883782084]}}, {"type": "Feature", "properties": {"norad_id": 29933, "name": "FENGYUN 1C DEB", "group": "fengyun-1c-debris", "lat": 29.23095055523179, "lon": -78.05111692574155, "alt_km": 675.2676501418764, "timestamp": "2025-12-19T08:58:49.610651+00:00", "meta": {"OBJECT_NAME": "FENGYUN 1C DEB", "OBJECT_ID": "1999-025JF", "EPOCH": "2025-12-18T06:13:16.400640", "MEAN_MOTION": 14.66065581, "ECCENTRICITY": 0.0004952, "INCLINATION": 98.7492, "RA_OF_ASC_NODE": 95.8178, "ARG_OF_PERICENTER": 307.6992, "MEAN_ANOMALY": 81.3887, "EPHEMERIS_TYPE": 0, "CLASSIFICATION_TYPE": "U", "NORAD_CAT_ID": 29933, "ELEMENT_SET_NO": 999, "REV_AT_EPOCH": 98586, "BSTAR": 0.0027485589, "MEAN_MOTION_DOT": 0.00015062, "MEAN_MOTION_DDOT": 0}, "tle": {"line1": "1 29933U 99025JF  25352.25921760  .00015062  00000+0  27486-2 0  9992", "line2": "2 29933  98.7492  95.8178 0004952 307.6992  81.3887 14.66065581985864"}}, "geometry": {"type": "Point", "coordinates": [-78.05111692574155, 29.23095055523179]}}, {"type": "Feature", "properties": {"norad_id": 29934, "name": "FENGYUN 1C DEB", "group": "fengyun-1c-debris", "lat": 28.382043053153833, "lon": 35.913589676900536, "alt_km": 744.980655673372, "timestamp": "2025-12-19T08:58:49.610661+00:00", "meta": {"OBJECT_NAME": "FENGYUN 1C DEB", "OBJECT_ID": "1999-025JG", "EPOCH": "2025-12-18T16:26:33.008064", "MEAN_MOTION": 14.63840502, "ECCENTRICITY": 0.01008591, "INCLINATION": 98.9039, "RA_OF_ASC_NODE": 40.0283, "ARG_OF_PERICENTER": 233.8721, "MEAN_ANOMALY": 125.3112, "EPHEMERIS_TYPE": 0, "CLASSIFICATION_TYPE": "U", "NORAD_CAT_ID": 29934, "ELEMENT_SET_NO": 999, "REV_AT_EPOCH": 99859, "BSTAR": 0.00062125322, "MEAN_MOTION_DOT": 3.432e-05, "MEAN_MOTION_DDOT": 0}, "tle": {"line1": "1 29934U 99025JG  25352.68510426  .00003432  00000+0  62125-3 0  9991", "line2": "2 29934  98.9039  40.0283 0100859 233.8721 125.3112 14.63840502998591"}}, "geometry": {"type": "Point", "coordinates": [35.913589676900536, 28.382043053153833]}}, {"type": "Feature", "properties": {"norad_id": 29935, "name": "FENGYUN 1C DEB", "group": "fengyun-1c-debris", "lat": 48.789340745596604, "lon": 45.440222488832006, "alt_km": 931.559172240949, "timestamp": "2025-12-19T08:58:49.610671+00:00", "meta": {"OBJECT_NAME": "FENGYUN 1C DEB", "OBJECT_ID": "1999-025JH", "EPOCH": "2025-12-18T02:28:52.998816", "MEAN_MOTION": 14.14241196, "ECCENTRICITY": 0.01504334, "INCLINATION": 98.461, "RA_OF_ASC_NODE": 54.0219, "ARG_OF_PERICENTER": 200.6617, "MEAN_ANOMALY": 223.5591, "EPHEMERIS_TYPE": 0, "CLASSIFICATION_TYPE": "U", "NORAD_CAT_ID": 29935, "ELEMENT_SET_NO": 999, "REV_AT_EPOCH": 97618, "BSTAR": 0.00010098978, "MEAN_MOTION_DOT": 1.74e-06, "MEAN_MOTION_DDOT": 0}, "tle": {"line1": "1 29935U 99025JH  25352.10339119  .00000174  00000+0  10099-3 0  9990", "line2": "2 29935  98.4610  54.0219 0150433 200.6617 223.5591 14.14241196976188"}}, "geometry": {"type": "Point", "coordinates": [45.440222488832006, 48.789340745596604]}}, {"type": "Feature", "properties": {"norad_id": 29936, "name": "FENGYUN 1C DEB", "group": "fengyun-1c-debris", "lat": -52.84329409435008, "lon": -84.81962492389555, "alt_km": 747.2171352132964, "timestamp": "2025-12-19T08:58:49.610681+00:00", "meta": {"OBJECT_NAME": "FENGYUN 1C DEB", "OBJECT_ID": "1999-025JJ", "EPOCH": "2025-12-18T20:11:25.664064", "MEAN_MOTION": 14.35319501, "ECCENTRICITY": 0.01143152, "INCLINATION": 98.6565, "RA_OF_ASC_NODE": 106.2424, "ARG_OF_PERICENTER": 168.9906, "MEAN_ANOMALY": 191.3821, "EPHEMERIS_TYPE": 0, "CLASSIFICATION_TYPE": "U", "NORAD_CAT_ID": 29936, "ELEMENT_SET_NO": 999, "REV_AT_EPOCH": 99018, "BSTAR": 0.00015017438, "MEAN_MOTION_DOT": 4.17e-06, "MEAN_MOTION_DDOT": 0}, "tle": {"line1": "1 29936U 99025JJ  25352.84126926  .00000417  00000+0  15017-3 0  9997", "line2": "2 29936  98.6565 106.2424 0114315 168.9906 191.3821 14.35319501990187"}}, "geometry": {"type": "Point", "coordinates": [-84.81962492389555, -52.84329409435008]}}, {"type": "Feature", "properties": {"norad_id": 29937, "name": "FENGYUN 1C DEB", "group": "fengyun-1c-debris", "lat": -45.27603073393695, "lon": 23.18555276078417, "alt_km": 870.1245342376315, "timestamp": "2025-12-19T08:58:49.610692+00:00", "meta": {"OBJECT_NAME": "FENGYUN 1C DEB", "OBJECT_ID": "1999-025JK", "EPOCH": "2025-12-18T23:13:43.288896", "MEAN_MOTION": 14.0436086, "ECCENTRICITY": 0.00321303, "INCLINATION": 98.8021, "RA_OF_ASC_NODE": 13.7913, "ARG_OF_PERICENTER": 4.434, "MEAN_ANOMALY": 56.8506, "EPHEMERIS_TYPE": 0, "CLASSIFICATION_TYPE": "U", "NORAD_CAT_ID": 29937, "ELEMENT_SET_NO": 999, "REV_AT_EPOCH": 97023, "BSTAR": -7.3894953e-05, "MEAN_MOTION_DOT": -1.61e-06, "MEAN_MOTION_DDOT": 0}, "tle": {"line1": "1 29937U 99025JK  25352.96786214 -.00000161  00000+0 -73895-4 0  9990", "line2": "2 29937  98.8021  13.7913 0032130   4.4340  56.8506 14.04360860970231"}}, "geometry": {"type": "Point", "coordinates": [23.18555276078417, -45.27603073393695]}}, {"type": "Feature", "properties": {"norad_id": 29938, "name": "FENGYUN 1C DEB", "group": "fengyun-1c-debris", "lat": -45.14481751874716, "lon": -7.82423153876433, "alt_km": 852.8733811747588, "timestamp": "2025-12-19T08:58:49.610702+00:00", "meta": {"OBJECT_NAME": "FENGYUN 1C DEB", "OBJECT_ID": "1999-025JL", "EPOCH": "2025-12-18T23:03:12.436704", "MEAN_MOTION": 14.07462638, "ECCENTRICITY": 0.00326594, "INCLINATION": 98.8024, "RA_OF_ASC_NODE": 342.8135, "ARG_OF_PERICENTER": 292.8448, "MEAN_ANOMALY": 86.6462, "EPHEMERIS_TYPE": 0, "CLASSIFICATION_TYPE": "U", "NORAD_CAT_ID": 29938, "ELEMENT_SET_NO": 999, "REV_AT_EPOCH": 97144, "BSTAR": 0.00011378621, "MEAN_MOTION_DOT": 1.49e-06, "MEAN_MOTION_DDOT": 0}, "tle": {"line1": "1 29938U 99025JL  25352.96056061  .00000149  00000+0  11379-3 0  9993", "line2": "2 29938  98.8024 342.8135 0032659 292.8448  86.6462 14.07462638971440"}}, "geometry": {"type": "Point", "coordinates": [-7.82423153876433, -45.14481751874716]}}, {"type": "Feature", "properties": {"norad_id": 29939, "name": "FENGYUN 1C DEB", "group": "fengyun-1c-debris", "lat": 53.34658345750858, "lon": -19.116507381669138, "alt_km": 826.8239892136635, "timestamp": "2025-12-19T08:58:49.610712+00:00", "meta": {"OBJECT_NAME": "FENGYUN 1C DEB", "OBJECT_ID": "1999-025JM", "EPOCH": "2025-12-18T22:48:47.227104", "MEAN_MOTION": 14.12086014, "ECCENTRICITY": 0.00671901, "INCLINATION": 98.7098, "RA_OF_ASC_NODE": 352.3605, "ARG_OF_PERICENTER": 121.0968, "MEAN_ANOMALY": 301.5545, "EPHEMERIS_TYPE": 0, "CLASSIFICATION_TYPE": "U", "NORAD_CAT_ID": 29939, "ELEMENT_SET_NO": 999, "REV_AT_EPOCH": 97548, "BSTAR": 6.2280462e-05, "MEAN_MOTION_DOT": 7.4e-07, "MEAN_MOTION_DDOT": 0}, "tle": {"line1": "1 29939U 99025JM  25352.95054661  .00000074  00000+0  62280-4 0  9992", "line2": "2 29939  98.7098 352.3605 0067190 121.0968 301.5545 14.12086014975482"}}, "geometry": {"type": "Point", "coordinates": [-19.116507381669138, 53.34658345750858]}}]}